{"type": "FeatureCollection", "features": [ {"type": "Feature", "properties": {"norad_id": 66859, "name": "STARLINK-35646", "group": "last-30-days", "lat": 22.695781658882368, "lon": 92.76909280930164, "alt_km": 359.92246256495855, "timestamp": "2025-12-21T22:41:40.166020+00:00", "meta": {"OBJECT_NAME": "STARLINK-35646", "OBJECT_ID": "2025-281M", "EPOCH": "2025-12-21T14:00:01.999872", "MEAN_MOTION": 15.69978108, "ECCENTRICITY": 0.00011118, "INCLINATION": 43.0004, "RA_OF_ASC_NODE": 68.2811, "ARG_OF_PERICENTER": 290.8825, "MEAN_ANOMALY": 214.7405, "EPHEMERIS_TYPE": 0, "CLASSIFICATION_TYPE": "U", "NORAD_CAT_ID": 66859, "ELEMENT_SET_NO": 999, "REV_AT_EPOCH": 281, "BSTAR": -0.017288142, "MEAN_MOTION_DOT": -0.01899023, "MEAN_MOTION_DDOT": 0}, "tle": {"line1": "1 66859U 25281M   25355.58335648 -.01899023  00000+0 -17288-1 0  9994", "line2": "2 66859  43.0004  68.2811 0001111 290.8825 214.7405 15.69978108  2819"}}, "geometry": {"type": "Point", "coordinates": [92.76909280930164, 22.695781658882368]}}, {"type": "Feature", "properties": {"norad_id": 66860, "name": "STARLINK-35987", "group": "last-30-days", "lat": 28.301757645797597, "lon": 101.37817697452473, "alt_km": 359.2693635041933, "timestamp": "2025-12-21T22:41:40.166033+00:00", "meta": {"OBJECT_NAME": "STARLINK-35987", "OBJECT_ID": "2025-281N", "EPOCH": "2025-12-21T14:00:01.999872", "MEAN_MOTION": 15.69978611, "ECCENTRICITY": 0.000101, "INCLINATION": 43.0006, "RA_OF_ASC_NODE": 68.2572, "ARG_OF_PERICENTER": 282.6635, "MEAN_ANOMALY": 232.5469, "EPHEMERIS_TYPE": 0, "CLASSIFICATION_TYPE": "U", "NORAD_CAT_ID": 66860, "ELEMENT_SET_NO": 999, "REV_AT_EPOCH": 281, "BSTAR": -0.017308252, "MEAN_MOTION_DOT": -0.01900947, "MEAN_MOTION_DDOT": 0}, "tle": {"line1": "1 66860U 25281N   25355.58335648 -.01900947  00000+0 -17308-1 0  9997", "line2": "2 66860  43.0006  68.2572 0001010 282.6635 232.5469 15.69978611  2810"}}, "geometry": {"type": "Point", "coordinates": [101.37817697452473, 28.301757645797597]}}, {"type": "Feature", "properties": {"norad_id": 66861, "name": "STARLINK-35991", "group": "last-30-days", "lat": 24.997378153540243, "lon": 96.11570179456494, "alt_km": 359.6911792907731, "timestamp": "2025-12-21T22:41:40.166043+00:00", "meta": {"OBJECT_NAME": "STARLINK-35991", "OBJECT_ID": "2025-281P", "EPOCH": "2025-12-21T14:00:01.999872", "MEAN_MOTION": 15.69975196, "ECCENTRICITY": 0.00010686, "INCLINATION": 43.0005, "RA_OF_ASC_NODE": 68.2719, "ARG_OF_PERICENTER": 285.2849, "MEAN_ANOMALY": 224.1718, "EPHEMERIS_TYPE": 0, "CLASSIFICATION_TYPE": "U", "NORAD_CAT_ID": 66861, "ELEMENT_SET_NO": 999, "REV_AT_EPOCH": 281, "BSTAR": -0.017223339, "MEAN_MOTION_DOT": -0.01892469, "MEAN_MOTION_DDOT": 0}, "tle": {"line1": "1 66861U 25281P   25355.58335648 -.01892469  00000+0 -17223-1 0  9993", "line2": "2 66861  43.0005  68.2719 0001068 285.2849 224.1718 15.69975196  2811"}}, "geometry": {"type": "Point", "coordinates": [96.11570179456494, 24.997378153540243]}}, {"type": "Feature", "properties": {"norad_id": 66862, "name": "STARLINK-35974", "group": "last-30-days", "lat": 23.856698246879258, "lon": 94.42718999090229, "alt_km": 359.7907515978595, "timestamp": "2025-12-21T22:41:40.166052+00:00", "meta": {"OBJECT_NAME": "STARLINK-35974", "OBJECT_ID": "2025-281Q", "EPOCH": "2025-12-21T14:00:01.999872", "MEAN_MOTION": 15.69978225, "ECCENTRICITY": 0.00010925, "INCLINATION": 43.0018, "RA_OF_ASC_NODE": 68.2761, "ARG_OF_PERICENTER": 289.3412, "MEAN_ANOMALY": 218.1995, "EPHEMERIS_TYPE": 0, "CLASSIFICATION_TYPE": "U", "NORAD_CAT_ID": 66862, "ELEMENT_SET_NO": 999, "REV_AT_EPOCH": 271, "BSTAR": -0.017294304, "MEAN_MOTION_DOT": -0.01899617, "MEAN_MOTION_DDOT": 0}, "tle": {"line1": "1 66862U 25281Q   25355.58335648 -.01899617  00000+0 -17294-1 0  9994", "line2": "2 66862  43.0018  68.2761 0001092 289.3412 218.1995 15.69978225  2716"}}, "geometry": {"type": "Point", "coordinates": [94.42718999090229, 23.856698246879258]}}, {"type": "Feature", "properties": {"norad_id": 66863, "name": "STARLINK-36134", "group": "last-30-days", "lat": 26.120164827039048, "lon": 97.83659752617358, "alt_km": 359.5317180169959, "timestamp": "2025-12-21T22:41:40.166065+00:00", "meta": {"OBJECT_NAME": "STARLINK-36134", "OBJECT_ID": "2025-281R", "EPOCH": "2025-12-21T14:00:01.999872", "MEAN_MOTION": 15.69975657, "ECCENTRICITY": 0.00010751, "INCLINATION": 43.0003, "RA_OF_ASC_NODE": 68.2673, "ARG_OF_PERICENTER": 285.7848, "MEAN_ANOMALY": 225.5896, "EPHEMERIS_TYPE": 0, "CLASSIFICATION_TYPE": "U", "NORAD_CAT_ID": 66863, "ELEMENT_SET_NO": 999, "REV_AT_EPOCH": 281, "BSTAR": -0.017238881, "MEAN_MOTION_DOT": -0.01894022, "MEAN_MOTION_DDOT": 0}, "tle": {"line1": "1 66863U 25281R   25355.58335648 -.01894022  00000+0 -17239-1 0  9999", "line2": "2 66863  43.0003  68.2673 0001075 285.7848 225.5896 15.69975657  2816"}}, "geometry": {"type": "Point", "coordinates": [97.83659752617358, 26.120164827039048]}}, {"type": "Feature", "properties": {"norad_id": 66864, "name": "STARLINK-36070", "group": "last-30-days", "lat": 27.222968874461806, "lon": 99.59074340176541, "alt_km": 359.36611295235707, "timestamp": "2025-12-21T22:41:40.166075+00:00", "meta": {"OBJECT_NAME": "STARLINK-36070", "OBJECT_ID": "2025-281S", "EPOCH": "2025-12-21T14:00:01.999872", "MEAN_MOTION": 15.69976989, "ECCENTRICITY": 0.00011728, "INCLINATION": 43.0004, "RA_OF_ASC_NODE": 68.2616, "ARG_OF_PERICENTER": 288.2756, "MEAN_ANOMALY": 225.0166, "EPHEMERIS_TYPE": 0, "CLASSIFICATION_TYPE": "U", "NORAD_CAT_ID": 66864, "ELEMENT_SET_NO": 999, "REV_AT_EPOCH": 284, "BSTAR": -0.017272939, "MEAN_MOTION_DOT": -0.01897505, "MEAN_MOTION_DDOT": 0}, "tle": {"line1": "1 66864U 25281S   25355.58335648 -.01897505  00000+0 -17273-1 0  9997", "line2": "2 66864  43.0004  68.2616 0001172 288.2756 225.0166 15.69976989  2846"}}, "geometry": {"type": "Point", "coordinates": [99.59074340176541, 27.222968874461806]}}, {"type": "Feature", "properties": {"norad_id": 66865, "name": "STARLINK-36117", "group": "last-30-days", "lat": 29.357726805563416, "lon": 103.20403337925939, "alt_km": 359.15300864904293, "timestamp": "2025-12-21T22:41:40.166084+00:00", "meta": {"OBJECT_NAME": "STARLINK-36117", "OBJECT_ID": "2025-281T", "EPOCH": "2025-12-21T14:00:01.999872", "MEAN_MOTION": 15.69978594, "ECCENTRICITY": 0.00011371, "INCLINATION": 43.0006, "RA_OF_ASC_NODE": 68.2528, "ARG_OF_PERICENTER": 283.3324, "MEAN_ANOMALY": 233.7938, "EPHEMERIS_TYPE": 0, "CLASSIFICATION_TYPE": "U", "NORAD_CAT_ID": 66865, "ELEMENT_SET_NO": 999, "REV_AT_EPOCH": 281, "BSTAR": -0.017293427, "MEAN_MOTION_DOT": -0.01899591, "MEAN_MOTION_DDOT": 0}, "tle": {"line1": "1 66865U 25281T   25355.58335648 -.01899591  00000+0 -17293-1 0  9997", "line2": "2 66865  43.0006  68.2528 0001137 283.3324 233.7938 15.69978594  2813"}}, "geometry": {"type": "Point", "coordinates": [103.20403337925939, 29.357726805563416]}}, {"type": "Feature", "properties": {"norad_id": 66866, "name": "STARLINK-36126", "group": "last-30-days", "lat": 30.387576006862226, "lon": 105.06599346978024, "alt_km": 358.8875867854413, "timestamp": "2025-12-21T22:41:40.166096+00:00", "meta": {"OBJECT_NAME": "STARLINK-36126", "OBJECT_ID": "2025-281U", "EPOCH": "2025-12-21T14:00:01.999872", "MEAN_MOTION": 15.69970109, "ECCENTRICITY": 0.00010886, "INCLINATION": 43.0005, "RA_OF_ASC_NODE": 68.2476, "ARG_OF_PERICENTER": 290.0181, "MEAN_ANOMALY": 229.0316, "EPHEMERIS_TYPE": 0, "CLASSIFICATION_TYPE": "U", "NORAD_CAT_ID": 66866, "ELEMENT_SET_NO": 999, "REV_AT_EPOCH": 284, "BSTAR": -0.017226086, "MEAN_MOTION_DOT": -0.01892391, "MEAN_MOTION_DDOT": 0}, "tle": {"line1": "1 66866U 25281U   25355.58335648 -.01892391  00000+0 -17226-1 0  9995", "line2": "2 66866  43.0005  68.2476 0001088 290.0181 229.0316 15.69970109  2841"}}, "geometry": {"type": "Point", "coordinates": [105.06599346978024, 30.387576006862226]}}, {"type": "Feature", "properties": {"norad_id": 66867, "name": "STARLINK-36101", "group": "last-30-days", "lat": 31.390215630741725, "lon": 106.96750426297417, "alt_km": 358.85061322075035, "timestamp": "2025-12-21T22:41:40.166106+00:00", "meta": {"OBJECT_NAME": "STARLINK-36101", "OBJECT_ID": "2025-281V", "EPOCH": "2025-12-21T14:00:01.999872", "MEAN_MOTION": 15.69942785, "ECCENTRICITY": 8.931e-05, "INCLINATION": 43.0006, "RA_OF_ASC_NODE": 68.2432, "ARG_OF_PERICENTER": 282.1183, "MEAN_ANOMALY": 238.8701, "EPHEMERIS_TYPE": 0, "CLASSIFICATION_TYPE": "U", "NORAD_CAT_ID": 66867, "ELEMENT_SET_NO": 999, "REV_AT_EPOCH": 265, "BSTAR": -0.016940314, "MEAN_MOTION_DOT": -0.01862431, "MEAN_MOTION_DDOT": 0}, "tle": {"line1": "1 66867U 25281V   25355.58335648 -.01862431  00000+0 -16940-1 0  9990", "line2": "2 66867  43.0006  68.2432 0000893 282.1183 238.8701 15.69942785  2656"}}, "geometry": {"type": "Point", "coordinates": [106.96750426297417, 31.390215630741725]}}, {"type": "Feature", "properties": {"norad_id": 66868, "name": "STARLINK-36108", "group": "last-30-days", "lat": 32.36491659563631, "lon": 108.91063495402979, "alt_km": 358.7311867124836, "timestamp": "2025-12-21T22:41:40.166115+00:00", "meta": {"OBJECT_NAME": "STARLINK-36108", "OBJECT_ID": "2025-281W", "EPOCH": "2025-12-21T14:00:01.999872", "MEAN_MOTION": 15.69977485, "ECCENTRICITY": 0.00011351, "INCLINATION": 43.0004, "RA_OF_ASC_NODE": 68.2377, "ARG_OF_PERICENTER": 284.321, "MEAN_ANOMALY": 238.5588, "EPHEMERIS_TYPE": 0, "CLASSIFICATION_TYPE": "U", "NORAD_CAT_ID": 66868, "ELEMENT_SET_NO": 999, "REV_AT_EPOCH": 265, "BSTAR": -0.01730187, "MEAN_MOTION_DOT": -0.01900333, "MEAN_MOTION_DDOT": 0}, "tle": {"line1": "1 66868U 25281W   25355.58335648 -.01900333  00000+0 -17302-1 0  9998", "line2": "2 66868  43.0004  68.2377 0001135 284.3210 238.5588 15.69977485  2653"}}, "geometry": {"type": "Point", "coordinates": [108.91063495402979, 32.36491659563631]}}]}